CRE (WAAS/PRN 138)      
1 28868U 05036A   24017.51458676 -.00000071  00000+0  00000+0 0  9999
2 28868   2.0412  87.5026 0001506 228.2125 238.6297  1.00271074 37611
IOR-W (EGNOS/PRN 126)   
1 28899U 05044A   24017.65120713 -.00000258  00000+0  00000+0 0  9992
2 28899   4.0224  41.8173 0002163 261.6422 191.0001  1.00273550 66680
QZS-1 (QZSS/PRN 183)    
1 37158U 10045A   24017.35697735 -.00000012  00000+0  00000+0 0  9995
2 37158  43.0550 126.1514 0002995 147.5559 208.9155  0.87714688 48656
GSAT-8 (GAGAN/PRN 127)  
1 37605U 11022A   24017.46384135  .00000089  00000+0  00000+0 0  9990
2 37605   0.0549 257.7580 0008625  15.1228  65.5438  1.00271362 44376
LUCH 5A (SDCM/PRN 140)  
1 37951U 11074B   24017.48611917 -.00000049  00000+0  00000+0 0  9991
2 37951   6.4931  87.4516 0003067 198.5730 172.2183  1.00272166 44210
SES-5 (EGNOS/PRN 136)   
1 38652U 12036A   24017.43243775  .00000037  00000+0  00000+0 0  9993
2 38652   0.0245 350.0860 0001965 291.8922 354.9887  1.00269804 35645
GSAT-10 (GAGAN/PRN 128) 
1 38779U 12051B   24017.54106142 -.00000161  00000+0  00000+0 0  9997
2 38779   0.0224  62.4755 0005008 211.3789 120.3988  1.00270005 41277
LUCH 5B (SDCM/PRN 125)  
1 38977U 12061A   24017.44956962 -.00000137  00000+0  00000+0 0  9993
2 38977   8.5544  58.0191 0003132 181.3576  22.5017  1.00270911 40772
ASTRA 5B (EGNOS/PRN 123)
1 39617U 14011B   24017.53521538  .00000141  00000+0  00000+0 0  9993
2 39617   0.0972 294.3971 0004299 352.6234  45.5970  1.00272216 35829
LUCH 5V (SDCM/PRN 141)  
1 39727U 14023A   24017.54341102 -.00000265  00000+0  00000+0 0  9994
2 39727   2.9193  76.8458 0004020 226.5328 103.3352  1.00266812 35513
GSAT-15 (GAGAN/PRN 139) 
1 41028U 15065A   24017.54314997 -.00000253  00000+0  00000+0 0  9997
2 41028   0.0990 267.0605 0002001 341.3506 157.0369  1.00271117 29952
E 117 W B (WAAS/PRN 131)
1 41589U 16038B   24017.50572883 -.00000007  00000+0  00000+0 0  9993
2 41589   0.0055 208.3325 0000191 149.3108 183.8312  1.00273014 27822
SES-15 (WAAS/PRN 133)   
1 42709U 17026A   24017.41016473  .00000063  00000+0  00000+0 0  9995
2 42709   0.0184  34.4795 0000807 261.3118 199.0294  1.00278974 25308
QZS-2 (QZSS/PRN 184)    
1 42738U 17028A   24017.52063242 -.00000129  00000+0  00000+0 0  9991
2 42738  40.8181 255.9295 0753476 269.8054 279.8814  1.00276453 24295
QZS-3 (QZSS/PRN 189)    
1 42917U 17048A   24017.64573543 -.00000344  00000+0  00000+0 0  9994
2 42917   0.0659 218.4446 0002640  82.1532 175.4568  1.00271024 23421
QZS-4 (QZSS/PRN 185)    
1 42965U 17062A   24016.39006087 -.00000334  00000+0  00000+0 0  9997
2 42965  40.5812 354.7299 0751595 268.6379 128.9925  1.00296750 22965
BEIDOU-3 G1 (PRN 130)   
1 43683U 18085A   24017.65140703 -.00000275  00000+0  00000+0 0  9999
2 43683   1.8276 116.3597 0001867 331.5534  43.1448  1.00274609 19225
BEIDOU-3 G2 (PRN 144)   
1 45344U 20017A   24017.54045226 -.00000138  00000+0  00000+0 0  9993
2 45344   2.1501  23.1145 0003116 254.8498 113.0756  1.00271110 14425
BEIDOU-3 G3 (PRN 143)   
1 45807U 20040A   24017.36993671 -.00000350  00000+0  00000+0 0  9995
2 45807   0.5920  15.3910 0009249 299.0018  45.6371  1.00270199 13227
GALAXY 30 (WAAS/PRN 135)
1 46114U 20056C   24017.29200277  .00000041  00000+0  00000+0 0  9995
2 46114   0.0188  63.7124 0002061 230.8077 161.7951  1.00270221 12451
